{
  "norad_id": 64152,
  "name": "STARLINK-34348",
  "history": [
    {
      "epoch": "2026-03-28T20:48:32.719104Z",
      "apogee_km": 550.2504464278973,
      "perigee_km": 548.7533836583561,
      "latitude_deg": 2.503145770084171e-05,
      "longitude_deg": 1.9985322599996327,
      "height_km": 552.6928242609149,
      "semi_major_axis_km": 6927.638915043127,
      "eccentricity": 0.00010805,
      "inclination_deg": 97.6032,
      "raan_deg": 140.4162,
      "arg_perigee_deg": 99.7988,
      "mean_anomaly_deg": 260.3361,
      "mean_motion_rev_day": 15.05653012
    },
    {
      "epoch": "2026-03-29T03:11:20.595264Z",
      "apogee_km": 550.2086829975151,
      "perigee_km": 548.7677369538396,
      "latitude_deg": 7.614177746205302e-05,
      "longitude_deg": -93.70107438641622,
      "height_km": 552.7039170999467,
      "semi_major_axis_km": 6927.625209975677,
      "eccentricity": 0.000104,
      "inclination_deg": 97.6033,
      "raan_deg": 140.6781,
      "arg_perigee_deg": 102.1883,
      "mean_anomaly_deg": 257.9461,
      "mean_motion_rev_day": 15.0565748
    },
    {
      "epoch": "2026-03-30T03:06:50.498496Z",
      "apogee_km": 550.4321630459335,
      "perigee_km": 548.5284538095775,
      "latitude_deg": -3.240679603049217e-05,
      "longitude_deg": -92.57601991798916,
      "height_km": 552.8415054955082,
      "semi_major_axis_km": 6927.617308427755,
      "eccentricity": 0.0001374,
      "inclination_deg": 97.6025,
      "raan_deg": 141.6603,
      "arg_perigee_deg": 108.2445,
      "mean_anomaly_deg": 251.8931,
      "mean_motion_rev_day": 15.05660056
    }
  ]
}